#dP2023  3 29 12  0  0.00000000      96 __u+U ITR00 EXT  IAC
## 2255 302400.00000000   900.00000000 60032 0.5000000000000
+  120   C06C07C08C09C10C11C12C13C14C16C19C20C21C22C23C24C25
+        C26C27C28C29C30C32C33C34C35C36C37C38C39C40C41C42C43
+        C44C45C46E01E02E03E04E05E07E08E09E10E11E12E13E14E15
+        E18E19E21E24E25E26E27E30E31E33E34E36G01G02G03G04G05
+        G06G07G08G09G10G11G12G13G14G15G16G17G18G19G20G21G22
+        G23G24G25G26G27G28G29G30G31G32J02J03J04R01R02R03R04
+        R05R07R08R09R11R12R13R14R15R16R17R18R19R20R21R22R24
+        R25  0  0  0  0  0  0  0  0  0  0  0  0  0  0  0  0
++         9  9 11 10 10  9  8 10  8  9  6  9  8 10  8  8  6
++         8 10  9  8 10  8  9  7  9  9  9  8 10 10  7  7  8
++         8  9  8  7  8  7  6  7  8  8  7  7  7  7  7  6  7
++         7  7  7 13  7  6  6  7  8  8  7  8  7  7  6  6  7
++         7  6  6  7  7  6  7  7  7  7  7  7  7  6  8  7  7
++         6  7  8  8  7 10  8  7  8  7 10  9 10  8  6  7  8
++         8  7  8  8  7  7  8  8  8  8  7  8 10  9  7  8  8
++         7  0  0  0  0  0  0  0  0  0  0  0  0  0  0  0  0
%c M  cc GPS ccc cccc cccc cccc cccc ccccc ccccc ccccc ccccc
%c cc cc ccc ccc cccc cccc cccc cccc ccccc ccccc ccccc ccccc
%f  0.0000000  0.000000000  0.00000000000  0.000000000000000
%f  0.0000000  0.000000000  0.00000000000  0.000000000000000
%i    0    0    0    0      0      0      0      0         0
%i    0    0    0    0      0      0      0      0         0
/* IAC                                ULTRA-RAPID PREDICTION
/* S/V CLOCKS ARE ALIGNED TO GNSS TIME                      
/* G:C1WC2W R:C1PC2P E:C1XC5X C:C2IC6I J:C1CC2S             
/* PCV:IGS20_2247 OL/AL:FES2004  NONE     YN ORB:CoN CLK:CoN
*  2023 03 30  8 30  0.00000000
PC06  -3227.900726  27033.736566 -32105.451527   -197.093619
PC07 -18236.289170  31076.097193  21798.015166    -95.295740
PC08  -8566.197614  40792.857750   6936.913240    512.553341
PC09   5801.320417  30981.889411 -27331.731545    824.582609
PC10  -9774.062889  31201.907609  26657.242979    -21.054498
PC11  21861.147309  16452.062509   5595.328093    734.213264
PC12   6499.028108  18505.112615  19885.788913    538.741442
PC13  -4207.590278  42085.759985    918.826045    241.249483
PC14  14912.073270   8366.290190 -22042.988083     56.948300
PC16  -5465.571224  25107.053904 -33148.696296    124.266985
PC19 -21587.294037   -443.159023  17696.218068   -898.078798
PC20  -7370.756098 -13940.840151  23043.126990    653.114986
PC21 -12454.281011  20043.869557 -14852.728814   -908.974119
PC22 -24069.847643  13971.527199   1820.499879   -560.778065
PC23  14717.597997 -10844.489503  21082.407618   -896.343483
PC24   6779.475915  25945.597429   7750.114450   -232.771816
PC25  15802.742891   9296.160058  21032.197832     96.884195
PC26  -4154.647217  26337.125451  -8311.984242    -99.092103
PC27   2775.551584 -16256.651627 -22534.933067    118.093646
PC28  19282.597579  -5108.212451 -19512.446030     86.742500
PC29 -25959.272487  -9447.097189   3970.370795    100.322805
PC30 -15995.568654 -18334.592978 -13697.913997      0.645914
PC32  12351.475074 -20179.103496  14832.856817   -588.922911
PC33  21580.564472    347.307884 -17690.015047   -871.581644
PC34  17027.828494  18107.013092  12646.201599    137.755506
PC35 -19868.938489   5089.165980  18930.459213    655.326958
PC36 -15430.955994 -10420.755492 -20765.220583   -532.524925
PC37   5605.234687 -25632.204486   9479.548011   -795.621995
PC38 -12925.381814  37384.616436  14821.645209     68.373148
PC39 -10825.489661  21640.169766 -34475.954770     -2.367116
PC40 -24983.101321  25493.644715  22241.209280    -18.946776
PC41  24175.003171 -13739.022608  -2365.719156   -786.602872
PC42   6121.664420  14702.848862 -22863.652314   -761.689515
PC43  25835.157167  10017.856047  -3196.471171     14.231295
PC44  -2488.373671  16359.846602  22451.066001     60.153173
PC45 -14480.965256  11330.265393 -21002.744264    -78.639019
PC46  -7733.913745 -25129.269250  -9300.945844    -43.430055
PE01   5304.302066  20120.653671  21049.167170    -10.026100
PE02  -5703.060451 -19753.359313 -21296.800098     29.349265
PE03 -16458.715222 -13907.865983  20292.199527   -664.195353
PE04  28947.757116   3119.637780  -5327.559318    -89.498808
PE05   6020.701145 -16758.067789  23653.524838    -81.607496
PE07 -24778.631105   9658.166799 -12977.199264    -33.741627
PE08 -28887.679950  -3195.077486   5585.090435    -59.270993
PE09  24889.117579  -9538.622921  12895.608944   -886.982970
PE10  18378.638965   1478.357587 -23161.304363   -522.782146
PE11  12893.424097  -9708.256833 -24822.647059   1430.105555
PE12  20553.908374  11358.203269 -18005.552592   -478.462499
PE13 -13363.012064   8818.374394  24899.321699    -18.132810
PE14 -23599.948977   1330.927730   4073.836219    182.775650
PE15 -20566.274793 -11711.755270  17791.705013    -10.996361
PE18  28258.749354  -8259.930275 -13338.033159   -224.422391
PE19  13732.080300  14780.934158 -21646.672736  -2886.658975
PE21  -9058.373929  27139.718894   7589.370387   -520.447256
PE24  19726.857299 -18568.995662  11877.348424  -1193.239714
PE25   9288.541429 -27138.308292  -7294.614678   -602.312284
PE26   2090.921186  24357.621380  16687.183509     60.367430
PE27 -19465.216100  19269.270404 -11243.306623    -12.650479
PE30 -18127.519444   -610.425392 -23410.819209    -51.936884
PE31  18298.990177   -121.095912  23264.790062   -519.929100
PE33  15564.590676  25166.153614   -230.518190   -447.687791
PE34 -15697.781876 -25092.959498    385.684780    -37.564425
PE36  -1591.250580 -23949.684836 -17330.914617    -33.791746
PG01 -17343.386702  -6722.787468  18776.021348    197.880703
PG02  17028.058748   1393.299660 -19651.345332   -610.464584
PG03 -18001.629980   5212.940585  18647.762399   -340.195231
PG04 -26516.559831    -78.074791  -2354.029168      4.732178
PG05  10901.994188  11212.766409 -21623.274208   -121.439666
PG06   3231.009686  23346.675747  12210.215905    584.567983
PG07 -12572.060298   8677.049954 -21260.950978    212.472401
PG08 -23932.684278  -6965.403204  -9789.947252   -115.353178
PG09 -22161.241521   8374.911200 -12123.854435   -190.460438
PG10  10323.445085 -23725.889107   5395.180075    -30.677815
PG11  12299.519574  23513.183088  -1512.849440   -146.071681
PG12  17773.015139  -1795.326745  19342.802353   -357.727096
PG13  18128.300915  13200.770094 -14561.308634    498.211882
PG14 -13037.668037  22915.207744   2526.935796     10.174784
PG15  24595.949632   4607.025601  -9745.537124     26.089543
PG16  -7661.370737 -14304.223307 -21245.256957   -512.296504
PG17 -10074.981175  13402.495420  21053.934253    708.107297
PG18   9708.614104 -12650.008993 -21213.303849   -201.831594
PG19   1125.874923  15017.465259  21670.469315    296.856403
PG20   4814.653545  20104.854905 -16751.911181    441.944930
PG21 -19697.070077 -13450.144907  13096.404056    154.319910
PG22  -4824.427252 -15575.616252  21439.942759    454.839230
PG23  16524.552962 -19623.966454  -6568.908943     13.580240
PG24  19604.073854   9622.222010  15043.996287   -131.989175
PG25  18719.428981 -12820.766644  13270.175811    431.708911
PG26   1139.471651 -22932.571903 -13169.614673    241.951376
PG27 -15264.809987 -12806.403022 -18009.195399     69.935872
PG28  -2374.538055 -22731.299786  13508.072574     55.200669
PG29  24664.525507  -3683.095675  -9307.827050   -593.242662
PG30  -3751.418907  19828.493773 -17030.136279   -524.733302
PG31  -6402.705822 -24351.229145   7553.649367   -212.808147
PG32   6161.030228 -14810.664439  21313.619583   -437.743040
PJ02 -26668.930433  31798.046959  -3051.540545     -1.348307
PJ03 -26591.868137  21883.653659  29405.341462      1.549085
PJ04 -33910.018503  24813.374575    691.380428     94.151405
PR01 -19330.652393   -224.183024  16640.848594     25.729192
PR02 -23641.341294   9654.175781   -474.269067    -23.035170
PR03 -13608.166400  13947.632202 -16441.022047     75.120493
PR04   3583.802980  10155.883682 -23088.333998    181.362472
PR05  18869.939658   1077.550273 -17100.505956    110.152219
PR07  12765.290123 -13940.224350  17149.056614     52.788753
PR08  -3939.855280 -10184.654826  23116.252546    -70.138197
PR09  11156.359526 -11578.839439  19843.109200    111.966840
PR11  -1922.045419 -23407.737042  -9963.961405    -26.968334
PR12  -9626.268062  -8198.583418 -22130.424214     26.058705
PR13 -11212.247843   9570.362882 -20836.737426    -33.438891
PR14  -6052.995456  23960.897165  -6276.309016     24.476865
PR15   2341.248817  22882.949078  11036.765145     90.131459
PR16   9473.080393   8453.874256  22122.208937     12.966863
PR17  -1128.724163  12084.798198  22446.292849    616.717505
PR18  13120.654837  17793.828650  12684.667932     74.008058
PR19  20032.797739  15612.172653  -2348.744817   -227.175345
PR20  15888.597605   1967.554146 -19834.116163    -90.220954
PR21   -384.996963 -12949.900750 -21971.357466   -384.171012
PR22 -13053.278314 -18501.326251 -11741.436836     77.100892
PR24 -15845.389835   -635.067748  19991.884325    157.866251
PR25   2135.859644 -12073.138561 -22362.289167     59.158661
EOF
